CTC2_L_00581007-03
1 10062U 23988XQ  26075.70049769  .00000000  00000+0  00000-0 0  9990
2 10062  50.0000 180.0000 0000000   0.0000 144.0000  3.34706435    10
CTC2_L_00581007-04
1 10063U 22075XB  26075.70049769  .00000000  00000+0  00000-0 0  9997
2 10063  50.0000 180.0000 0000000   0.0000 180.0000  3.34706435    11
CTC2_L_00581007-05
1 10064U 26892KA  26075.70049769  .00000000  00000+0  00000-0 0  9999
2 10064  50.0000 180.0000 0000000   0.0000 216.0000  3.34706435    12
CTC2_L_00581007-06
1 10065U 24986EA  26075.70049769  .00000000  00000+0  00000-0 0  9992
2 10065  50.0000 180.0000 0000000   0.0000 252.0000  3.34706435    13
CTC2_L_00581007-07
1 10066U 26914MC  26075.70049769  .00000000  00000+0  00000-0 0  9996
2 10066  50.0000 180.0000 0000000   0.0000 288.0000  3.34706435    13
CTC2_L_00581007-08
1 10067U 22873NW  26075.70049769  .00000000  00000+0  00000-0 0  9997
2 10067  50.0000 180.0000 0000000   0.0000 324.0000  3.34706435    15
CTC2_L_00581007-09
1 10068U 24148HC  26075.70049769  .00000000  00000+0  00000-0 0  9995
2 10068  50.0000 180.0000 0000000   0.0000   0.0000  3.34706435    17
CTC2_L_00581007-10
1 10069U 24564DU  26075.70049769  .00000000  00000+0  00000-0 0  9998
2 10069  50.0000 180.0000 0000000   0.0000  36.0000  3.34706435    17
CTC2_L_00581008-01
1 10070U 22462VK  26075.70049769  .00000000  00000+0  00000-0 0  9995
2 10070  50.0000 210.0000 0000000   0.0000  84.0000  3.34706435    16
CTC2_L_00581008-02
1 10071U 26355PI  26075.70049769  .00000000  00000+0  00000-0 0  9991
2 10071  50.0000 210.0000 0000000   0.0000 120.0000  3.34706435    18
CTC2_L_00581008-03
1 10072U 22760TQ  26075.70049769  .00000000  00000+0  00000-0 0  9998
2 10072  50.0000 210.0000 0000000   0.0000 156.0000  3.34706435    18
CTC2_L_00581008-04
1 10073U 23128IH  26075.70049769  .00000000  00000+0  00000-0 0  9998
2 10073  50.0000 210.0000 0000000   0.0000 192.0000  3.34706435    19
CTC2_L_00581008-05
1 10074U 26749VS  26075.70049769  .00000000  00000+0  00000-0 0  9991
2 10074  50.0000 210.0000 0000000   0.0000 228.0000  3.34706435    10
CTC2_L_00581008-06
1 10075U 25993CD  26075.70049769  .00000000  00000+0  00000-0 0  9992
2 10075  50.0000 210.0000 0000000   0.0000 264.0000  3.34706435    11
CTC2_L_00581008-07
1 10076U 25852HK  26075.70049769  .00000000  00000+0  00000-0 0  9997
2 10076  50.0000 210.0000 0000000   0.0000 300.0000  3.34706435    13
CTC2_L_00581008-08
1 10077U 23774VN  26075.70049769  .00000000  00000+0  00000-0 0  9999
2 10077  50.0000 210.0000 0000000   0.0000 336.0000  3.34706435    13
CTC2_L_00581008-09
1 10078U 26830ED  26075.70049769  .00000000  00000+0  00000-0 0  9996
2 10078  50.0000 210.0000 0000000   0.0000  12.0000  3.34706435    15
CTC2_L_00581008-10
1 10079U 26521AO  26075.70049769  .00000000  00000+0  00000-0 0  9994
2 10079  50.0000 210.0000 0000000   0.0000  48.0000  3.34706435    15
CTC2_L_00581009-01
1 10080U 25955ZM  26075.70049769  .00000000  00000+0  00000-0 0  9996
2 10080  50.0000 240.0000 0000000   0.0000  96.0000  3.34706435    13
CTC2_L_00581009-02
1 10081U 26764MB  26075.70049769  .00000000  00000+0  00000-0 0  9996
2 10081  50.0000 240.0000 0000000   0.0000 132.0000  3.34706435    15
CTC2_L_00581009-03
1 10082U 25783QV  26075.70049769  .00000000  00000+0  00000-0 0  9997
2 10082  50.0000 240.0000 0000000   0.0000 168.0000  3.34706435    15
CTC2_L_00581009-04
1 10083U 26714XT  26075.70049769  .00000000  00000+0  00000-0 0  9993
2 10083  50.0000 240.0000 0000000   0.0000 204.0000  3.34706435    17
CTC2_L_00581009-05
1 10084U 24376M   26075.70049769  .00000000  00000+0  00000-0 0  9996
2 10084  50.0000 240.0000 0000000   0.0000 240.0000  3.34706435    18
CTC2_L_00581009-06
1 10085U 24691LP  26075.70049769  .00000000  00000+0  00000-0 0  9997
2 10085  50.0000 240.0000 0000000   0.0000 276.0000  3.34706435    18
CTC2_L_00581009-07
1 10086U 24026WP  26075.70049769  .00000000  00000+0  00000-0 0  9990
2 10086  50.0000 240.0000 0000000   0.0000 312.0000  3.34706435    10
CTC2_L_00581009-08
1 10087U 23578I   26075.70049769  .00000000  00000+0  00000-0 0  9992
2 10087  50.0000 240.0000 0000000   0.0000 348.0000  3.34706435    10
CTC2_L_00581009-09
1 10088U 24770QT  26075.70049769  .00000000  00000+0  00000-0 0  9998
2 10088  50.0000 240.0000 0000000   0.0000  24.0000  3.34706435    12
CTC2_L_00581009-10
1 10089U 22185QG  26075.70049769  .00000000  00000+0  00000-0 0  9997
2 10089  50.0000 240.0000 0000000   0.0000  60.0000  3.34706435    13
CTC2_L_00581010-01
1 10090U 23893VB  26075.70049769  .00000000  00000+0  00000-0 0  9996
2 10090  50.0000 270.0000 0000000   0.0000 108.0000  3.34706435    11
CTC2_L_00581010-02
1 10091U 22674DM  26075.70049769  .00000000  00000+0  00000-0 0  9993
2 10091  50.0000 270.0000 0000000   0.0000 144.0000  3.34706435    12
CTC2_L_00581010-03
1 10092U 24065CF  26075.70049769  .00000000  00000+0  00000-0 0  9990
2 10092  50.0000 270.0000 0000000   0.0000 180.0000  3.34706435    13
CTC2_L_00581010-04
1 10093U 23763GK  26075.70049769  .00000000  00000+0  00000-0 0  9995
2 10093  50.0000 270.0000 0000000   0.0000 216.0000  3.34706435    14
CTC2_L_00581010-05
1 10094U 24663AR  26075.70049769  .00000000  00000+0  00000-0 0  9996
2 10094  50.0000 270.0000 0000000   0.0000 252.0000  3.34706435    15
CTC2_L_00581010-06
1 10095U 23812ZL  26075.70049769  .00000000  00000+0  00000-0 0  9992
2 10095  50.0000 270.0000 0000000   0.0000 288.0000  3.34706435    15
CTC2_L_00581010-07
1 10096U 23440MU  26075.70049769  .00000000  00000+0  00000-0 0  9990
2 10096  50.0000 270.0000 0000000   0.0000 324.0000  3.34706435    17
CTC2_L_00581010-08
1 10097U 26469JF  26075.70049769  .00000000  00000+0  00000-0 0  9995
2 10097  50.0000 270.0000 0000000   0.0000   0.0000  3.34706435    19
CTC2_L_00581010-09
1 10098U 25793MB  26075.70049769  .00000000  00000+0  00000-0 0  9995
2 10098  50.0000 270.0000 0000000   0.0000  36.0000  3.34706435    19
CTC2_L_00581010-10
1 10099U 23666YL  26075.70049769  .00000000  00000+0  00000-0 0  9993
2 10099  50.0000 270.0000 0000000   0.0000  72.0000  3.34706435    10
CTC2_L_00581011-01
1 10100U 24970JI  26075.70049769  .00000000  00000+0  00000-0 0  9995
2 10100  50.0000 300.0000 0000000   0.0000 120.0000  3.34706435    11
CTC2_L_00581011-02
1 10101U 25009TB  26075.70049769  .00000000  00000+0  00000-0 0  9990
2 10101  50.0000 300.0000 0000000   0.0000 156.0000  3.34706435    11
CTC2_L_00581011-03
1 10102U 23839YL  26075.70049769  .00000000  00000+0  00000-0 0  9990
2 10102  50.0000 300.0000 0000000   0.0000 192.0000  3.34706435    12
CTC2_L_00581011-04
1 10103U 25842IB  26075.70049769  .00000000  00000+0  00000-0 0  9997
2 10103  50.0000 300.0000 0000000   0.0000 228.0000  3.34706435    13
CTC2_L_00581011-05
1 10104U 24839OQ  26075.70049769  .00000000  00000+0  00000-0 0  9993
2 10104  50.0000 300.0000 0000000   0.0000 264.0000  3.34706435    14
CTC2_L_00581011-06
1 10105U 24860DB  26075.70049769  .00000000  00000+0  00000-0 0  9998
2 10105  50.0000 300.0000 0000000   0.0000 300.0000  3.34706435    16
CTC2_L_00581011-07
1 10106U 25570MN  26075.70049769  .00000000  00000+0  00000-0 0  9998
2 10106  50.0000 300.0000 0000000   0.0000 336.0000  3.34706435    16
CTC2_L_00581011-08
1 10107U 26087DH  26075.70049769  .00000000  00000+0  00000-0 0  9993
2 10107  50.0000 300.0000 0000000   0.0000  12.0000  3.34706435    18
CTC2_L_00581011-09
1 10108U 23356AI  26075.70049769  .00000000  00000+0  00000-0 0  9990
2 10108  50.0000 300.0000 0000000   0.0000  48.0000  3.34706435    18
CTC2_L_00581011-10
1 10109U 23102BI  26075.70049769  .00000000  00000+0  00000-0 0  9990
2 10109  50.0000 300.0000 0000000   0.0000  84.0000  3.34706435    19
CTC2_L_00581012-01
1 10110U 22182MA  26075.70049769  .00000000  00000+0  00000-0 0  9999
2 10110  50.0000 330.0000 0000000   0.0000 132.0000  3.34706435    18
CTC2_L_00581012-02
1 10111U 24903DD  26075.70049769  .00000000  00000+0  00000-0 0  9993
2 10111  50.0000 330.0000 0000000   0.0000 168.0000  3.34706435    18
CTC2_L_00581012-03
1 10112U 26099HO  26075.70049769  .00000000  00000+0  00000-0 0  9992
2 10112  50.0000 330.0000 0000000   0.0000 204.0000  3.34706435    10
CTC2_L_00581012-04
1 10113U 22813AM  26075.70049769  .00000000  00000+0  00000-0 0  9993
2 10113  50.0000 330.0000 0000000   0.0000 240.0000  3.34706435    11
CTC2_L_00581012-05
1 10114U 22628LF  26075.70049769  .00000000  00000+0  00000-0 0  9998
2 10114  50.0000 330.0000 0000000   0.0000 276.0000  3.34706435    11
CTC2_L_00581012-06
1 10115U 22924UT  26075.70049769  .00000000  00000+0  00000-0 0  9998
2 10115  50.0000 330.0000 0000000   0.0000 312.0000  3.34706435    13
CTC2_L_00581012-07
1 10116U 26644SH  26075.70049769  .00000000  00000+0  00000-0 0  9992
2 10116  50.0000 330.0000 0000000   0.0000 348.0000  3.34706435    13
CTC2_L_00581012-08
1 10117U 26702XZ  26075.70049769  .00000000  00000+0  00000-0 0  9998
2 10117  50.0000 330.0000 0000000   0.0000  24.0000  3.34706435    15
CTC2_L_00581012-09
1 10118U 22214XO  26075.70049769  .00000000  00000+0  00000-0 0  9993
2 10118  50.0000 330.0000 0000000   0.0000  60.0000  3.34706435    16
CTC2_L_00581012-10
1 10119U 24412AL  26075.70049769  .00000000  00000+0  00000-0 0  9996
2 10119  50.0000 330.0000 0000000   0.0000  96.0000  3.34706435    16
